NORAD_CAT_ID,OBJECT_NAME,OBJECT_TYPE,EPOCH,MEAN_MOTION,ECCENTRICITY,INCLINATION,RA_OF_ASC_NODE,ARG_OF_PERICENTER,MEAN_ANOMALY,BSTAR,MEAN_MOTION_DOT,MEAN_MOTION_DDOT,TLE_LINE0,TLE_LINE1,TLE_LINE2,SEMIMAJOR_AXIS,PERIOD,APOGEE,PERIGEE,DECAYED
50203.0,STARLINK-3257,PAYLOAD,2022-04-19 22:00:00,15.0881857,0.0001857,53.2178,132.714,46.9886,87.9974,0.0026727,0.0004248,0.0,0 STARLINK-3257,1 50203U 21125AZ  22109.91667824  .00042480  00000-0  26727-2 0  9992,2 50203  53.2178 132.7140 0001857  46.9886  87.9974 15.08818570 19319,6917.946,95.439,541.096,538.526,0.0
50203.0,STARLINK-3257,PAYLOAD,2022-04-20 14:00:01,15.08848166,0.0002062,53.2176,129.72299999999998,42.65,115.5213,-0.00033331,-5.59e-05,0.0,0 STARLINK-3257,1 50203U 21125AZ  22110.58334491 -.00005590  00000-0 -33331-3 0  9991,2 50203  53.2176 129.7230 0002062  42.6500 115.5213 15.08848166 19417,6917.855,95.437,541.1469999999998,538.294,0.0
50203.0,STARLINK-3257,PAYLOAD,2022-04-20 22:00:00,15.08816581,0.0001818,53.2176,128.2251,46.9209,122.8691,0.0015403,0.00024295,0.0,0 STARLINK-3257,1 50203U 21125AZ  22110.91667824  .00024295  00000-0  15403-2 0  9997,2 50203  53.2176 128.2251 0001818  46.9209 122.8691 15.08816581  3606,6917.9519999999975,95.439,541.075,538.559,0.0
50203.0,STARLINK-3257,PAYLOAD,2022-04-21 14:00:01,15.08830465,0.0002026,53.2175,125.2342,42.5547,150.3872,9.1319e-05,1.165e-05,0.0,0 STARLINK-3257,1 50203U 21125AZ  22111.58334491  .00001165  00000-0  91319-4 0  9995,2 50203  53.2175 125.2342 0002026  42.5547 150.3872 15.08830465  3617,6917.91,95.438,541.1759999999998,538.373,0.0
50203.0,STARLINK-3257,PAYLOAD,2022-04-21 22:00:00,15.08818495,0.0001866,53.2176,123.7363,48.481,156.0606,0.0027679,0.00044013,0.0,0 STARLINK-3257,1 50203U 21125AZ  22111.91667824  .00044013  00000-0  27679-2 0  9996,2 50203  53.2176 123.7363 0001866  48.4810 156.0606 15.08818495  3609,6917.946,95.439,541.102,538.52,0.0
50203.0,STARLINK-3257,PAYLOAD,2022-04-22 14:00:01,15.08859092,0.0002053,53.2176,120.7454,43.5668,184.1535,-0.0016515,-0.0002648999999999,0.0,0 STARLINK-3257,1 50203U 21125AZ  22112.58334491 -.00026490  00000-0 -16515-2 0  9999,2 50203  53.2176 120.7454 0002053  43.5668 184.1535 15.08859092  3615,6917.821999999999,95.436,541.107,538.2669999999998,0.0
50203.0,STARLINK-3257,PAYLOAD,2022-04-22 16:00:00,15.08875705,0.0001995,53.2177,120.3708,44.0367,276.5814,-0.0045811,-0.00072535,0.0,0 STARLINK-3257,1 50203U 21125AZ  22112.66667824 -.00072535  00000-0 -45811-2 0  9999,2 50203  53.2177 120.3708 0001995  44.0367 276.5814 15.08875705 19724,6917.771,95.435,541.016,538.256,0.0
50203.0,STARLINK-3257,PAYLOAD,2022-04-23 06:00:02,15.08835094,0.0002041,53.2179,117.7527,45.0773,205.9002,-0.00092714,-0.00015012,0.0,0 STARLINK-3257,1 50203U 21125AZ  22113.25002315 -.00015012  00000-0 -92714-3 0  9995,2 50203  53.2179 117.7527 0002041  45.0773 205.9002 15.08835094 19812,6917.895,95.438,541.172,538.3480000000002,0.0
50203.0,STARLINK-3257,PAYLOAD,2022-04-23 14:00:01,15.08845568,0.0002071,53.2178,116.2564,42.7249,219.7687,-0.00082497,-0.00013396,0.0,0 STARLINK-3257,1 50203U 21125AZ  22113.58334491 -.00013396  00000-0 -82497-3 0  9994,2 50203  53.2178 116.2564 0002071  42.7249 219.7687 15.08845568  3576,6917.863,95.437,541.161,538.2959999999998,0.0
50203.0,STARLINK-3257,PAYLOAD,2022-04-23 22:00:00,15.08821702,0.0001968,53.218,114.7585,48.4352,225.6601,0.0028739,0.00045725,0.0,0 STARLINK-3257,1 50203U 21125AZ  22113.91667824  .00045725  00000-0  28739-2 0  9997,2 50203  53.2180 114.7585 0001968  48.4352 225.6601 15.08821702 19918,6917.936,95.439,541.163,538.44,0.0
50203.0,STARLINK-3257,PAYLOAD,2022-04-24 14:00:01,15.08878297,0.0002114,53.2182,111.7674,43.1122,254.1775,-0.00412,-0.00065334,0.0,0 STARLINK-3257,1 50203U 21125AZ  22114.58334491 -.00065334  00000-0 -41200-2 0  9990,2 50203  53.2182 111.7674 0002114  43.1122 254.1775 15.08878297 20010,6917.763000000001,95.435,541.091,538.1659999999998,0.0
50203.0,STARLINK-3257,PAYLOAD,2022-04-25 06:00:00,15.08845406,0.0002153,53.2186,108.7749,44.7835,275.7138,-0.00069279,-0.00011299,0.0,0 STARLINK-3257,1 50203U 21125AZ  22115.25001157 -.00011299  00000-0 -69279-3 0  9993,2 50203  53.2186 108.7749 0002153  44.7835 275.7138 15.08845406 20113,6917.864000000001,95.437,541.2180000000002,538.239,0.0
50203.0,STARLINK-3257,PAYLOAD,2022-04-25 14:00:01,15.08863464,0.0002108,53.2185,107.2783,42.702,289.3864,-0.0035209,-0.00055926,0.0,0 STARLINK-3257,1 50203U 21125AZ  22115.58334491 -.00055926  00000-0 -35209-2 0  9999,2 50203  53.2185 107.2783 0002108  42.7020 289.3864 15.08863464  3604,6917.809,95.436,541.132,538.215,0.0
50203.0,STARLINK-3257,PAYLOAD,2022-04-25 22:00:00,15.0881923,0.000196,53.2188,105.7805,48.3422,295.3547,0.002828,0.00044982,0.0,0 STARLINK-3257,1 50203U 21125AZ  22115.91667824  .00044982  00000-0  28280-2 0  9994,2 50203  53.2188 105.7805 0001960  48.3422 295.3547 15.08819230  3616,6917.944,95.439,541.165,538.453,0.0
50203.0,STARLINK-3257,PAYLOAD,2022-04-26 06:00:00,15.08844922,0.0002138,53.2188,104.2859,44.6801,310.606,-0.00049691,-8.189e-05,0.0,0 STARLINK-3257,1 50203U 21125AZ  22116.25001157 -.00008189  00000-0 -49691-3 0  9994,2 50203  53.2188 104.2859 0002138  44.6801 310.6060 15.08844922 20275,6917.865,95.437,541.2090000000002,538.251,0.0
50203.0,STARLINK-3257,PAYLOAD,2022-04-26 14:00:01,15.08875902,0.0002055,53.2185,102.7889,43.1588,323.7857,-0.0045633,-0.00072258,0.0,0 STARLINK-3257,1 50203U 21125AZ  22116.58335648 -.00072258  00000-0 -45633-2 0  9994,2 50203  53.2185 102.7889 0002055  43.1588 323.7857 15.08875902  3601,6917.771,95.435,541.057,538.214,0.0
50203.0,STARLINK-3257,PAYLOAD,2022-04-26 22:00:00,15.08816829,0.0001878,53.2186,101.2916,48.5281,329.964,0.0025953,0.00041232,0.0,0 STARLINK-3257,1 50203U 21125AZ  22116.91667824  .00041232  00000-0  25953-2 0  9994,2 50203  53.2186 101.2916 0001878  48.5281 329.9640 15.08816829  3575,6917.951,95.439,541.115,538.5169999999998,0.0
50203.0,STARLINK-3257,PAYLOAD,2022-04-27 14:00:01,15.0886833,0.000196,53.2183,98.2996,43.0561,358.6699,-0.00476,-0.00075312,0.0,0 STARLINK-3257,1 50203U 21125AZ  22117.58335648 -.00075312  00000-0 -47600-2 0  9995,2 50203  53.2183  98.2996 0001960  43.0561 358.6699 15.08868330 20473,6917.794,95.436,541.015,538.303,0.0
50203.0,STARLINK-3257,PAYLOAD,2022-04-27 22:00:00,15.0881538,0.0001784,53.2186,96.8023,48.3022,4.9634,0.0023115,0.00036667,0.0,0 STARLINK-3257,1 50203U 21125AZ  22117.91667824  .00036667  00000-0  23115-2 0  9999,2 50203  53.2186  96.8023 0001784  48.3022   4.9634 15.08815380 20528,6917.956,95.439,541.055,538.586,0.0
50203.0,STARLINK-3257,PAYLOAD,2022-04-28 14:00:01,15.08867561,0.0001872,53.2181,93.8106,44.3213,32.1184,-0.00227,-0.00036261,0.0,0 STARLINK-3257,1 50203U 21125AZ  22118.58334491 -.00036261  00000-0 -22700-2 0  9995,2 50203  53.2181  93.8106 0001872  44.3213  32.1184 15.08867561 20620,6917.795999999999,95.436,540.956,538.366,0.0
50203.0,STARLINK-3257,PAYLOAD,2022-04-29 06:00:00,15.08846973,0.0001855,53.2183,90.8189,42.9383,56.7154,-0.0018157,-0.00029075,0.0,0 STARLINK-3257,1 50203U 21125AZ  22119.25001157 -.00029075  00000-0 -18157-2 0  9996,2 50203  53.2183  90.8189 0001855  42.9383  56.7154 15.08846973 20727,6917.859,95.437,541.007,538.441,0.0
50203.0,STARLINK-3257,PAYLOAD,2022-04-29 14:00:01,15.08837113,0.0001747,53.218,89.3215,42.5495,68.6953,-0.001118,-0.00018036,0.0,0 STARLINK-3257,1 50203U 21125AZ  22119.58334491 -.00018036  00000-0 -11180-2 0  9996,2 50203  53.2180  89.3215 0001747  42.5495  68.6953 15.08837113  3600,6917.889,95.438,540.9630000000002,538.5459999999998,0.0
50203.0,STARLINK-3257,PAYLOAD,2022-04-29 22:00:00,15.08839016,0.0001726,53.2183,87.8244,49.898,72.9311,-0.0012517,-0.00020153,0.0,0 STARLINK-3257,1 50203U 21125AZ  22119.91667824 -.00020153  00000-0 -12517-2 0  9990,2 50203  53.2183  87.8244 0001726  49.8980  72.9311 15.08839016 20827,6917.8830000000025,95.438,540.942,538.554,0.0
50203.0,STARLINK-3257,PAYLOAD,2022-04-30 14:00:01,15.08840433,0.0001861,53.2184,84.8326,46.4658,99.5089,-0.00093754,-0.00015178,0.0,0 STARLINK-3257,1 50203U 21125AZ  22120.58334491 -.00015178  00000-0 -93754-3 0  9990,2 50203  53.2184  84.8326 0001861  46.4658  99.5089 15.08840433  3565,6917.879,95.438,541.031,538.457,0.0
50203.0,STARLINK-3257,PAYLOAD,2022-04-30 22:00:00,15.08853307,0.0001815,53.2187,83.3357,51.6392,105.9189,-0.00079059,-0.00012853,0.0,0 STARLINK-3257,1 50203U 21125AZ  22120.91667824 -.00012853  00000-0 -79059-3 0  9995,2 50203  53.2187  83.3357 0001815  51.6392 105.9189 15.08853307 20979,6917.84,95.437,540.96,538.4490000000002,0.0
50203.0,STARLINK-3257,PAYLOAD,2022-05-01 14:00:01,15.08850169,0.0001839,53.219,80.3437,45.6081,135.1266,-0.0022822,-0.00036437,0.0,0 STARLINK-3257,1 50203U 21125AZ  22121.58334491 -.00036437  00000-0 -22822-2 0  9999,2 50203  53.2190  80.3437 0001839  45.6081 135.1266 15.08850169  3585,6917.849,95.437,540.986,538.442,0.0
50203.0,STARLINK-3257,PAYLOAD,2022-05-01 22:00:01,15.08836224,0.0001866,53.2195,78.8471,50.9631,141.4191,-0.0017222,-0.0002759,0.0,0 STARLINK-3257,1 50203U 21125AZ  22121.91668981 -.00027590  00000-0 -17222-2 0  9998,2 50203  53.2195  78.8471 0001866  50.9631 141.4191 15.08836224 21123,6917.892,95.438,541.048,538.466,0.0
50203.0,STARLINK-3257,PAYLOAD,2022-05-02 14:00:01,15.08829438,0.0001966,53.2198,75.8551,48.5864,166.8686,-0.00090115,-0.00014597,0.0,0 STARLINK-3257,1 50203U 21125AZ  22122.58334491 -.00014597  00000-0 -90115-3 0  9994,2 50203  53.2198  75.8551 0001966  48.5864 166.8686 15.08829438  3606,6917.913000000001,95.438,541.138,538.418,0.0
50203.0,STARLINK-3257,PAYLOAD,2022-05-02 22:00:01,15.08837672,0.0001969,53.2202,74.3588,53.0904,173.9996,0.00036843,5.58e-05,0.0,0 STARLINK-3257,1 50203U 21125AZ  22122.91668981  .00005580  00000-0  36843-3 0  9993,2 50203  53.2202  74.3588 0001969  53.0904 173.9996 15.08837672 21270,6917.888000000001,95.438,541.115,538.39,0.0
